     2.11           N: GPS NAV DATA                         RINEX VERSION / TYPE
teqc  2019Feb25                         20221121 12:25:28UTCPGM / RUN BY / DATE
OSX ker:10.11.6|Core i5|gcc 4.3 -m64|OSX ker:10.10+|=+      COMMENT
    4.6566D-09  1.4901D-08 -5.9605D-08 -5.9605D-08          ION ALPHA
    7.9872D+04  6.5536D+04 -6.5536D+04 -3.9322D+05          ION BETA
   -4.656612873077D-09-1.598721155460D-14   405504     1541 DELTA-UTC: A0,A1,T,W
                                                            END OF HEADER
17 09  7 21 23 59 44.0 7.194932550192D-05 2.501110429876D-12 0.000000000000D+00
    1.000000000000D+00 1.318750000000D+01 4.679123475703D-09-3.039718773379D+00
    6.556510925293D-07 4.575815750286D-03 1.036934554577D-05 5.153707868576D+03
    2.591840000000D+05-1.005828380585D-07-2.428192190717D+00-5.215406417847D-08
    9.598588919642D-01 1.774062500000D+02-2.633216151131D+00-7.856041521377D-09
    7.007434744927D-10 1.000000000000D+00 1.541000000000D+03 0.000000000000D+00
    2.000000000000D+00 0.000000000000D+00-1.024454832077D-08 1.000000000000D+00
    2.582520000000D+05 4.000000000000D+00
 8 09  7 21 23 59 44.0-2.130107022822D-04-1.818989403546D-12 0.000000000000D+00
    5.000000000000D+00-5.259375000000D+01 4.270177870048D-09-1.959965036068D-01
   -2.695247530937D-06 1.073486276437D-02-1.005828380585D-07 5.153632030487D+03
    2.591840000000D+05 9.685754776001D-08 1.804944584055D+00-7.078051567078D-08
    9.890412476407D-01 3.914375000000D+02 2.999650067466D+00-8.492496603715D-09
    7.143154683922D-13 1.000000000000D+00 1.541000000000D+03 0.000000000000D+00
    2.000000000000D+00 0.000000000000D+00-3.725290298462D-09 5.000000000000D+00
    2.520180000000D+05 4.000000000000D+00
